{"type": "FeatureCollection", "features": [ {"type": "Feature", "properties": {"norad_id": 30071, "name": "FENGYUN 1C DEB", "group": "fengyun-1c-debris", "lat": -38.586108070003895, "lon": 97.76455684021728, "alt_km": 744.2183070616402, "timestamp": "2025-12-17T09:00:17.421987+00:00", "meta": {"OBJECT_NAME": "FENGYUN 1C DEB", "OBJECT_ID": "1999-025PY", "EPOCH": "2025-12-16T13:24:33.827040", "MEAN_MOTION": 14.52217165, "ECCENTRICITY": 0.00389652, "INCLINATION": 98.6584, "RA_OF_ASC_NODE": 89.9395, "ARG_OF_PERICENTER": 98.2248, "MEAN_ANOMALY": 277.0142, "EPHEMERIS_TYPE": 0, "CLASSIFICATION_TYPE": "U", "NORAD_CAT_ID": 30071, "ELEMENT_SET_NO": 999, "REV_AT_EPOCH": 98282, "BSTAR": 0.0017976186, "MEAN_MOTION_DOT": 7.325e-05, "MEAN_MOTION_DDOT": 0}, "tle": {"line1": "1 30071U 99025PY  25350.55872485  .00007325  00000+0  17976-2 0  9993", "line2": "2 30071  98.6584  89.9395 0038965  98.2248 277.0142 14.52217165982826"}}, "geometry": {"type": "Point", "coordinates": [97.76455684021728, -38.586108070003895]}}, {"type": "Feature", "properties": {"norad_id": 30072, "name": "FENGYUN 1C DEB", "group": "fengyun-1c-debris", "lat": 44.365114863878766, "lon": 130.9068597754537, "alt_km": 797.1596610640763, "timestamp": "2025-12-17T09:00:17.421997+00:00", "meta": {"OBJECT_NAME": "FENGYUN 1C DEB", "OBJECT_ID": "1999-025PZ", "EPOCH": "2025-12-16T22:46:26.364000", "MEAN_MOTION": 14.37858856, "ECCENTRICITY": 0.00598262, "INCLINATION": 99.0755, "RA_OF_ASC_NODE": 139.4512, "ARG_OF_PERICENTER": 260.2839, "MEAN_ANOMALY": 99.1586, "EPHEMERIS_TYPE": 0, "CLASSIFICATION_TYPE": "U", "NORAD_CAT_ID": 30072, "ELEMENT_SET_NO": 999, "REV_AT_EPOCH": 97231, "BSTAR": 0.0024996141, "MEAN_MOTION_DOT": 7.656e-05, "MEAN_MOTION_DDOT": 0}, "tle": {"line1": "1 30072U 99025PZ  25350.94891625  .00007656  00000+0  24996-2 0  9991", "line2": "2 30072  99.0755 139.4512 0059826 260.2839  99.1586 14.37858856972319"}}, "geometry": {"type": "Point", "coordinates": [130.9068597754537, 44.365114863878766]}}, {"type": "Feature", "properties": {"norad_id": 30073, "name": "FENGYUN 1C DEB", "group": "fengyun-1c-debris", "lat": -4.026256714644611, "lon": -34.54458403147397, "alt_km": 831.851384553217, "timestamp": "2025-12-17T09:00:17.422007+00:00", "meta": {"OBJECT_NAME": "FENGYUN 1C DEB", "OBJECT_ID": "1999-025QA", "EPOCH": "2025-12-16T09:55:42.968928", "MEAN_MOTION": 14.18690642, "ECCENTRICITY": 0.00532908, "INCLINATION": 99.4114, "RA_OF_ASC_NODE": 323.7669, "ARG_OF_PERICENTER": 270.3992, "MEAN_ANOMALY": 217.0175, "EPHEMERIS_TYPE": 0, "CLASSIFICATION_TYPE": "U", "NORAD_CAT_ID": 30073, "ELEMENT_SET_NO": 999, "REV_AT_EPOCH": 96977, "BSTAR": 0.0011194332, "MEAN_MOTION_DOT": 2.306e-05, "MEAN_MOTION_DDOT": 0}, "tle": {"line1": "1 30073U 99025QA  25350.41369177  .00002306  00000+0  11194-2 0  9999", "line2": "2 30073  99.4114 323.7669 0053290 270.3992 217.0175 14.18690642969772"}}, "geometry": {"type": "Point", "coordinates": [-34.54458403147397, -4.026256714644611]}}, {"type": "Feature", "properties": {"norad_id": 30074, "name": "FENGYUN 1C DEB", "group": "fengyun-1c-debris", "lat": 12.206174420240803, "lon": 55.70874402689594, "alt_km": 892.1204505924143, "timestamp": "2025-12-17T09:00:17.422017+00:00", "meta": {"OBJECT_NAME": "FENGYUN 1C DEB", "OBJECT_ID": "1999-025QB", "EPOCH": "2025-12-15T11:03:21.906144", "MEAN_MOTION": 14.12872322, "ECCENTRICITY": 0.00972202, "INCLINATION": 99.1301, "RA_OF_ASC_NODE": 55.7508, "ARG_OF_PERICENTER": 144.414, "MEAN_ANOMALY": 216.3566, "EPHEMERIS_TYPE": 0, "CLASSIFICATION_TYPE": "U", "NORAD_CAT_ID": 30074, "ELEMENT_SET_NO": 999, "REV_AT_EPOCH": 96700, "BSTAR": 0.0011285527, "MEAN_MOTION_DOT": 2.151e-05, "MEAN_MOTION_DDOT": 0}, "tle": {"line1": "1 30074U 99025QB  25349.46067021  .00002151  00000+0  11286-2 0  9996", "line2": "2 30074  99.1301  55.7508 0097220 144.4140 216.3566 14.12872322967000"}}, "geometry": {"type": "Point", "coordinates": [55.70874402689594, 12.206174420240803]}}, {"type": "Feature", "properties": {"norad_id": 30075, "name": "FENGYUN 1C DEB", "group": "fengyun-1c-debris", "lat": 50.48546876161296, "lon": -126.72580401830521, "alt_km": 861.030603100191, "timestamp": "2025-12-17T09:00:17.422027+00:00", "meta": {"OBJECT_NAME": "FENGYUN 1C DEB", "OBJECT_ID": "1999-025QC", "EPOCH": "2025-12-16T15:44:36.885408", "MEAN_MOTION": 13.92534487, "ECCENTRICITY": 0.00912195, "INCLINATION": 99.3615, "RA_OF_ASC_NODE": 41.0101, "ARG_OF_PERICENTER": 166.5177, "MEAN_ANOMALY": 318.9986, "EPHEMERIS_TYPE": 0, "CLASSIFICATION_TYPE": "U", "NORAD_CAT_ID": 30075, "ELEMENT_SET_NO": 999, "REV_AT_EPOCH": 96119, "BSTAR": 0.00015873389, "MEAN_MOTION_DOT": 1.66e-06, "MEAN_MOTION_DDOT": 0}, "tle": {"line1": "1 30075U 99025QC  25350.65598247  .00000166  00000+0  15873-3 0  9990", "line2": "2 30075  99.3615  41.0101 0091219 166.5177 318.9986 13.92534487961198"}}, "geometry": {"type": "Point", "coordinates": [-126.72580401830521, 50.48546876161296]}}, {"type": "Feature", "properties": {"norad_id": 30076, "name": "FENGYUN 1C DEB", "group": "fengyun-1c-debris", "lat": -80.0267178668036, "lon": 45.712390728115004, "alt_km": 1110.6913662916295, "timestamp": "2025-12-17T09:00:17.422037+00:00", "meta": {"OBJECT_NAME": "FENGYUN 1C DEB", "OBJECT_ID": "1999-025QD", "EPOCH": "2025-12-16T23:15:21.562848", "MEAN_MOTION": 13.76293721, "ECCENTRICITY": 0.01757259, "INCLINATION": 99.2383, "RA_OF_ASC_NODE": 337.5704, "ARG_OF_PERICENTER": 82.7777, "MEAN_ANOMALY": 339.8959, "EPHEMERIS_TYPE": 0, "CLASSIFICATION_TYPE": "U", "NORAD_CAT_ID": 30076, "ELEMENT_SET_NO": 999, "REV_AT_EPOCH": 94952, "BSTAR": 0.00029358871, "MEAN_MOTION_DOT": 2.79e-06, "MEAN_MOTION_DDOT": 0}, "tle": {"line1": "1 30076U 99025QD  25350.96899957  .00000279  00000+0  29359-3 0  9996", "line2": "2 30076  99.2383 337.5704 0175725  82.7777 339.8959 13.76293721949522"}}, "geometry": {"type": "Point", "coordinates": [45.712390728115004, -80.0267178668036]}}, {"type": "Feature", "properties": {"norad_id": 30077, "name": "FENGYUN 1C DEB", "group": "fengyun-1c-debris", "lat": -8.782122957623306, "lon": 8.250528171182497, "alt_km": 876.0690701657823, "timestamp": "2025-12-17T09:00:17.422047+00:00", "meta": {"OBJECT_NAME": "FENGYUN 1C DEB", "OBJECT_ID": "1999-025QE", "EPOCH": "2025-12-17T00:38:30.951168", "MEAN_MOTION": 14.07080362, "ECCENTRICITY": 0.00204385, "INCLINATION": 98.7579, "RA_OF_ASC_NODE": 6.5484, "ARG_OF_PERICENTER": 251.5084, "MEAN_ANOMALY": 135.3805, "EPHEMERIS_TYPE": 0, "CLASSIFICATION_TYPE": "U", "NORAD_CAT_ID": 30077, "ELEMENT_SET_NO": 999, "REV_AT_EPOCH": 97173, "BSTAR": -3.2100706e-05, "MEAN_MOTION_DOT": -9.7e-07, "MEAN_MOTION_DDOT": 0}, "tle": {"line1": "1 30077U 99025QE  25351.02674712 -.00000097  00000+0 -32101-4 0  9995", "line2": "2 30077  98.7579   6.5484 0020438 251.5084 135.3805 14.07080362971736"}}, "geometry": {"type": "Point", "coordinates": [8.250528171182497, -8.782122957623306]}}, {"type": "Feature", "properties": {"norad_id": 30078, "name": "FENGYUN 1C DEB", "group": "fengyun-1c-debris", "lat": 31.645667914098173, "lon": -108.2434603284112, "alt_km": 831.226652463869, "timestamp": "2025-12-17T09:00:17.422057+00:00", "meta": {"OBJECT_NAME": "FENGYUN 1C DEB", "OBJECT_ID": "1999-025QF", "EPOCH": "2025-12-16T19:22:42.377952", "MEAN_MOTION": 14.2315836, "ECCENTRICITY": 0.00529515, "INCLINATION": 98.8326, "RA_OF_ASC_NODE": 65.688, "ARG_OF_PERICENTER": 268.6132, "MEAN_ANOMALY": 212.5088, "EPHEMERIS_TYPE": 0, "CLASSIFICATION_TYPE": "U", "NORAD_CAT_ID": 30078, "ELEMENT_SET_NO": 999, "REV_AT_EPOCH": 97171, "BSTAR": 0.0010367863, "MEAN_MOTION_DOT": 2.331e-05, "MEAN_MOTION_DDOT": 0}, "tle": {"line1": "1 30078U 99025QF  25350.80743493  .00002331  00000+0  10368-2 0  9994", "line2": "2 30078  98.8326  65.6880 0052951 268.6132 212.5088 14.23158360971713"}}, "geometry": {"type": "Point", "coordinates": [-108.2434603284112, 31.645667914098173]}}, {"type": "Feature", "properties": {"norad_id": 30079, "name": "FENGYUN 1C DEB", "group": "fengyun-1c-debris", "lat": -50.7033815204409, "lon": -144.348908599868, "alt_km": 861.7476862391723, "timestamp": "2025-12-17T09:00:17.422067+00:00", "meta": {"OBJECT_NAME": "FENGYUN 1C DEB", "OBJECT_ID": "1999-025QG", "EPOCH": "2025-12-16T17:03:04.227840", "MEAN_MOTION": 14.00796617, "ECCENTRICITY": 0.00847043, "INCLINATION": 99.0347, "RA_OF_ASC_NODE": 46.2042, "ARG_OF_PERICENTER": 287.8028, "MEAN_ANOMALY": 194.1589, "EPHEMERIS_TYPE": 0, "CLASSIFICATION_TYPE": "U", "NORAD_CAT_ID": 30079, "ELEMENT_SET_NO": 999, "REV_AT_EPOCH": 96593, "BSTAR": 0.00015641867, "MEAN_MOTION_DOT": 1.96e-06, "MEAN_MOTION_DDOT": 0}, "tle": {"line1": "1 30079U 99025QG  25350.71046560  .00000196  00000+0  15642-3 0  9994", "line2": "2 30079  99.0347  46.2042 0084704 287.8028 194.1589 14.00796617965939"}}, "geometry": {"type": "Point", "coordinates": [-144.348908599868, -50.7033815204409]}}, {"type": "Feature", "properties": {"norad_id": 30080, "name": "FENGYUN 1C DEB", "group": "fengyun-1c-debris", "lat": 71.93823638535049, "lon": 179.74758907570885, "alt_km": 797.8726083150787, "timestamp": "2025-12-17T09:00:17.422077+00:00", "meta": {"OBJECT_NAME": "FENGYUN 1C DEB", "OBJECT_ID": "1999-025QH", "EPOCH": "2025-12-16T22:33:20.364192", "MEAN_MOTION": 14.10826449, "ECCENTRICITY": 0.0133722, "INCLINATION": 98.6984, "RA_OF_ASC_NODE": 331.3281, "ARG_OF_PERICENTER": 48.7501, "MEAN_ANOMALY": 5.7496, "EPHEMERIS_TYPE": 0, "CLASSIFICATION_TYPE": "U", "NORAD_CAT_ID": 30080, "ELEMENT_SET_NO": 999, "REV_AT_EPOCH": 97297, "BSTAR": 0.00027010065, "MEAN_MOTION_DOT": 4.84e-06, "MEAN_MOTION_DDOT": 0}, "tle": {"line1": "1 30080U 99025QH  25350.93981903  .00000484  00000+0  27010-3 0  9991", "line2": "2 30080  98.6984 331.3281 0133722  48.7501   5.7496 14.10826449972975"}}, "geometry": {"type": "Point", "coordinates": [179.74758907570885, 71.93823638535049]}}]}